API VERSION: 1.2
API SOURCE: NASA/JPL Horizons API



*******************************************************************************
Ephemeris / API_USER Wed Apr 15 10:19:22 2026 Pasadena, USA      / Horizons
*******************************************************************************
Target body name: Saturn (699)                    {source: sat441l}
Center body name: Sun (10)                        {source: DE441}
Center-site name: BODY CENTER
*******************************************************************************
Start time      : A.D. 2039-Jul-29 20:03:00.0000 TDB
Stop  time      : A.D. 2039-Jul-31 20:03:00.0000 TDB
Step-size       : 60 minutes
*******************************************************************************
Center geodetic : 0.0, 0.0, 0.0                   {E-lon(deg),Lat(deg),Alt(km)}
Center cylindric: 0.0, 0.0, 0.0                   {E-lon(deg),Dxy(km),Dz(km)}
Center radii    : 695700.0, 695700.0, 695700.0 km {Equator_a, b, pole_c}
Output units    : AU-D
Calendar mode   : Mixed Julian/Gregorian
Output type     : GEOMETRIC cartesian states
Output format   : 3 (position, velocity, LT, range, range-rate)
Reference frame : Ecliptic of J2000.0
*******************************************************************************
            JDTDB,            Calendar Date (TDB),                      X,                      Y,                      Z,                     VX,                     VY,                     VZ,                     LT,                     RG,                     RR,
**************************************************************************************************************************************************************************************************************************************************************************
$$SOE
2465999.335416667, A.D. 2039-Jul-29 20:03:00.0000, -9.488529219756805E+00,  5.600585251692537E-03,  3.776330636989912E-01, -3.081622509368098E-04, -5.598168350856843E-03,  1.097108371156210E-04,  5.484456804870280E-02,  9.496042588970022E+00,  3.089796528805208E-04,
2465999.377083333, A.D. 2039-Jul-29 21:03:00.0000, -9.488542056790015E+00,  5.367328065936040E-03,  3.776376349386924E-01, -3.080153203253026E-04, -5.598176540388327E-03,  1.097086529234772E-04,  5.484464240248333E-02,  9.496055462928044E+00,  3.089703086355652E-04,
2465999.418750000, A.D. 2039-Jul-29 22:03:00.0000, -9.488554887698260E+00,  5.134070542098884E-03,  3.776422060854250E-01, -3.078682526153962E-04, -5.598184578295672E-03,  1.097063744111473E-04,  5.484471675399830E-02,  9.496068336493790E+00,  3.089608237724436E-04,
2465999.460416667, A.D. 2039-Jul-29 23:03:00.0000, -9.488567712475827E+00,  4.900812686560346E-03,  3.776467771352295E-01, -3.077210477777725E-04, -5.598192461443678E-03,  1.097040000905800E-04,  5.484479110321382E-02,  9.496081209661403E+00,  3.089511981894913E-04,
2465999.502083333, A.D. 2039-Jul-30 00:03:00.0000, -9.488580531117009E+00,  4.667554505852601E-03,  3.776513480840756E-01, -3.075737061655950E-04, -5.598200185631133E-03,  1.097015280605269E-04,  5.484486545009609E-02,  9.496094082425023E+00,  3.089414321509136E-04,
2465999.543750000, A.D. 2039-Jul-30 01:03:00.0000, -9.488593343616122E+00,  4.434296006704153E-03,  3.776559189278461E-01, -3.074262287977472E-04, -5.598207745649028E-03,  1.096989560513837E-04,  5.484493979461137E-02,  9.496106954778810E+00,  3.089315265713983E-04,
2465999.585416667, A.D. 2039-Jul-30 02:03:00.0000, -9.488606149967547E+00,  4.201037196079799E-03,  3.776604896623224E-01, -3.072786175237960E-04, -5.598215135389172E-03,  1.096962814860955E-04,  5.484501413672625E-02,  9.496119826716987E+00,  3.089214831831748E-04,
2465999.627083333, A.D. 2039-Jul-30 03:03:00.0000, -9.488618950165762E+00,  3.967778081215397E-03,  3.776650602831731E-01, -3.071308751420503E-04, -5.598222347961382E-03,  1.096935015396528E-04,  5.484508847640795E-02,  9.496132698233867E+00,  3.089113046561645E-04,
2465999.668750000, A.D. 2039-Jul-30 04:03:00.0000, -9.488631744205374E+00,  3.734518669648466E-03,  3.776696307859452E-01, -3.069830055357317E-04, -5.598229375801923E-03,  1.096906131925044E-04,  5.484516281362429E-02,  9.496145569323884E+00,  3.089009947360107E-04,
2465999.710416667, A.D. 2039-Jul-30 05:03:00.0000, -9.488644532081194E+00,  3.501258969243666E-03,  3.776742011660564E-01, -3.068350138707203E-04, -5.598236210780879E-03,  1.096876132850959E-04,  5.484523714834429E-02,  9.496158439981672E+00,  3.088905584436992E-04,
2465999.752083333, A.D. 2039-Jul-30 06:03:00.0000, -9.488657313788261E+00,  3.267998988214155E-03,  3.776787714187912E-01, -3.066869068687081E-04, -5.598242844336162E-03,  1.096844985896312E-04,  5.484531148053824E-02,  9.496171310202088E+00,  3.088800023512208E-04,
2465999.793750000, A.D. 2039-Jul-30 07:03:00.0000, -9.488670089321950E+00,  3.034738735135348E-03,  3.776833415393002E-01, -3.065386931380329E-04, -5.598249267674161E-03,  1.096812659196219E-04,  5.484538581017832E-02,  9.496184179980320E+00,  3.088693349163749E-04,
2465999.835416667, A.D. 2039-Jul-30 08:03:00.0000, -9.488682858678025E+00,  2.801478218948915E-03,  3.776879115226044E-01, -3.063903835159674E-04, -5.598255472078813E-03,  1.096779122969667E-04,  5.484546013723898E-02,  9.496197049311936E+00,  3.088585668313107E-04,
2465999.877083333, A.D. 2039-Jul-30 09:03:00.0000, -9.488695621852761E+00,  2.568217448950433E-03,  3.776924813636095E-01, -3.062419913548420E-04, -5.598261449361602E-03,  1.096744351899785E-04,  5.484553446169750E-02,  9.496209918193006E+00,  3.088477113177869E-04,
2465999.918750000, A.D. 2039-Jul-30 10:03:00.0000, -9.488708378843045E+00,  2.334956434755498E-03,  3.776970510571301E-01, -3.060935326729669E-04, -5.598267192465057E-03,  1.096708328244335E-04,  5.484560878353475E-02,  9.496222786620216E+00,  3.088367842902821E-04,
2465999.960416667, A.D. 2039-Jul-30 11:03:00.0000, -9.488721129646484E+00,  2.101695186237438E-03,  3.777016205979289E-01, -3.059450260917823E-04, -5.598272696203235E-03,  1.096671045542747E-04,  5.484568310273568E-02,  9.496235654590960E+00,  3.088258043079534E-04,
2466000.002083333, A.D. 2039-Jul-30 12:03:00.0000, -9.488733874261511E+00,  1.868433713432618E-03,  3.777061899807723E-01, -3.057964924938196E-04, -5.598277958087860E-03,  1.096632512608926E-04,  5.484575741929002E-02,  9.496248522103462E+00,  3.088147922488742E-04,
2466000.043750000, A.D. 2039-Jul-30 13:03:00.0000, -9.488746612687461E+00,  1.635172026410149E-03,  3.777107592005018E-01, -3.056479543616335E-04, -5.598282979152112E-03,  1.096592757320087E-04,  5.484583173319271E-02,  9.496261389156848E+00,  3.088037706648308E-04,
2466000.085416667, A.D. 2039-Jul-30 14:03:00.0000, -9.488759344924633E+00,  1.401910135110520E-03,  3.777153282521205E-01, -3.054994347945869E-04, -5.598287764651594E-03,  1.096551829562687E-04,  5.484590604444432E-02,  9.496274255751210E+00,  3.087927628110298E-04,
2466000.127083333, A.D. 2039-Jul-30 15:03:00.0000, -9.488772070974266E+00,  1.168648049158764E-03,  3.777198971308872E-01, -3.053509562458477E-04, -5.598292324500318E-03,  1.096509802609915E-04,  5.484598035305083E-02,  9.496287121887590E+00,  3.087817913901560E-04,
2466000.168750000, A.D. 2039-Jul-30 16:03:00.0000, -9.488784790838507E+00,  9.353857776687498E-04,  3.777244658324144E-01, -3.052025390727935E-04, -5.598296673297270E-03,  1.096466772225148E-04,  5.484605465902361E-02,  9.496299987567951E+00,  3.087708771010471E-04,
2466000.210416667, A.D. 2039-Jul-30 17:03:00.0000, -9.488797504520276E+00,  7.021233290558674E-04,  3.777290343527539E-01, -3.050542000457173E-04, -5.598300829825290E-03,  1.096422852958345E-04,  5.484612896237855E-02,  9.496312852795048E+00,  3.087600371345773E-04,
2466000.252083333, A.D. 2039-Jul-30 18:03:00.0000, -9.488810212023097E+00,  4.688607108837348E-04,  3.777336026884635E-01, -3.049059510067606E-04, -5.598304815970030E-03,  1.096378171482933E-04,  5.484620326313511E-02,  9.496325717572253E+00,  3.087492838078108E-04,
2466000.293750000, A.D. 2039-Jul-30 19:03:00.0000, -9.488822913350861E+00,  2.355979297663552E-04,  3.777381708366381E-01, -3.047577979067675E-04, -5.598308655124334E-03,  1.096332857468959E-04,  5.484627756131508E-02,  9.496338581903327E+00,  3.087386235657953E-04,
2466000.335416667, A.D. 2039-Jul-30 20:03:00.0000, -9.488835608507586E+00,  2.334991343963295E-06,  3.777427387949016E-01, -3.046097404646085E-04, -5.598312370326195E-03,  1.096287033471259E-04,  5.484635185694094E-02,  9.496351445792181E+00,  3.087280566011334E-04,
2466000.377083333, A.D. 2039-Jul-30 21:03:00.0000, -9.488848297497148E+00, -2.309280996663994E-04,  3.777473065613584E-01, -3.044617726827440E-04, -5.598315982641252E-03,  1.096240806701721E-04,  5.484642615003463E-02,  9.496364309242599E+00,  3.087175773362962E-04,
2466000.418750000, A.D. 2039-Jul-30 22:03:00.0000, -9.488860980323082E+00, -4.641913393724462E-04,  3.777518741345237E-01, -3.043138844046282E-04, -5.598319510659415E-03,  1.096194267431347E-04,  5.484650044061614E-02,  9.496377172258043E+00,  3.087071759731095E-04,
2466000.460416667, A.D. 2039-Jul-30 23:03:00.0000, -9.488873656988456E+00, -6.974547246325624E-04,  3.777564415132706E-01, -3.041660640031581E-04, -5.598322972447433E-03,  1.096147501216981E-04,  5.484657472870281E-02,  9.496390034841522E+00,  3.086968412275038E-04,
2466000.502083333, A.D. 2039-Jul-31 00:03:00.0000, -9.488886327495889E+00, -9.307182531456012E-04,  3.777610086968762E-01, -3.040183014506430E-04, -5.598326390752984E-03,  1.096100618683575E-04,  5.484664901430952E-02,  9.496402896995608E+00,  3.086865635160238E-04,
2466000.543750000, A.D. 2039-Jul-31 01:03:00.0000, -9.488898991847343E+00, -1.163981923238645E-03,  3.777655756848903E-01, -3.038705741122391E-04, -5.598329770992948E-03,  1.096053629133109E-04,  5.484672329744741E-02,  9.496415758722232E+00,  3.086763202554832E-04,
